[{"OBJECT_NAME":"STARLINK-1222","OBJECT_ID":"2020-012BC","EPOCH":"2026-03-09T22:38:25.073664","MEAN_MOTION":15.49506736,"ECCENTRICITY":0.00039794,"INCLINATION":53.0573,"RA_OF_ASC_NODE":341.5954,"ARG_OF_PERICENTER":86.864,"MEAN_ANOMALY":273.2823,"EPHEMERIS_TYPE":0,"CLASSIFICATION_TYPE":"U","NORAD_CAT_ID":45228,"ELEMENT_SET_NO":999,"REV_AT_EPOCH":33566,"BSTAR":0.00049812662,"MEAN_MOTION_DOT":0.00027553,"MEAN_MOTION_DDOT":0},{"OBJECT_NAME":"STARLINK-1304","OBJECT_ID":"2020-019S","EPOCH":"2026-03-09T12:23:26.505600","MEAN_MOTION":15.48251524,"ECCENTRICITY":0.00022692,"INCLINATION":53.0494,"RA_OF_ASC_NODE":150.3277,"ARG_OF_PERICENTER":330.5798,"MEAN_ANOMALY":29.5081,"EPHEMERIS_TYPE":0,"CLASSIFICATION_TYPE":"U","NORAD_CAT_ID":45376,"ELEMENT_SET_NO":999,"REV_AT_EPOCH":32994,"BSTAR":0.0015279259,"MEAN_MOTION_DOT":0.00082321,"MEAN_MOTION_DDOT":0}]
